CUTE-1 (CO-55)          
1 27844U 03031E   24366.95551906  .00001393  00000+0  62873-3 0  9997
2 27844  98.6776  11.3005 0008725 293.8546  66.1718 14.23737601115920
CUBESAT XI-IV (CO-57)   
1 27848U 03031J   24365.49533462  .00001189  00000+0  54607-3 0  9995
2 27848  98.6804   9.9829 0008828 316.8669  43.1817 14.23107145115456
CUBESAT XI-V            
1 28895U 05043F   24366.33804128  .00005903  00000+0  99531-3 0  9990
2 28895  98.2250 143.0623 0016001  94.5347 265.7687 14.69783433 23395
CUTE-1.7+APD II (CO-65) 
1 32785U 08021C   24366.82559545  .00013768  00000+0  10726-2 0  9992
2 32785  97.7702 331.3677 0011784  53.0196 307.2105 15.01274184905087
AAUSAT-II               
1 32788U 08021F   24365.70779946  .00101973  00000+0  25735-2 0  9992
2 32788  97.6043 349.3562 0004057 130.9842 229.1754 15.39440892908309
CANX-2                  
1 32790U 08021H   24365.66017560  .00013317  00000+0  10983-2 0  9990
2 32790  97.7953 328.7501 0013596  48.4298 311.8088 14.99077033904766
SEEDS II (CO-66)        
1 32791U 08021J   24366.66818929  .00027992  00000+0  16270-2 0  9999
2 32791  97.7126 338.0770 0005490  23.8385 336.3098 15.12036772906271
SWISSCUBE               
1 35932U 09051B   24366.64351943  .00004731  00000+0  98430-3 0  9994
2 35932  98.4477 253.7997 0008256  69.3645 290.8439 14.60509912811360
BEESAT-1                
1 35933U 09051C   24366.62807071  .00004037  00000+0  85010-3 0  9990
2 35933  98.4407 254.4097 0006696  80.7718 279.4238 14.60045994811429
ITUPSAT1                
1 35935U 09051E   25001.13320627  .00003846  00000+0  83060-3 0  9992
2 35935  98.4504 254.5880 0008920  86.2111 274.0107 14.58904949811146
TISAT 1                 
1 36799U 10035E   24366.48465856  .00027451  00000+0  16766-2 0  9996
2 36799  98.0699 265.2486 0002529 312.4200  47.6813 15.10256456786757
AEROCUBE 4.5A           
1 38767U 12048K   24365.52388701  .00043329  00000+0  16017-2 0  9997
2 38767  64.6528  37.8514 0111027 317.9001  41.3633 15.21795555290214
AEROCUBE 4.5B           
1 38768U 12048L   24366.79233580  .00199707  00000+0  21886-2 0  9994
2 38768  64.6437 295.8758 0058234 305.5741  53.9983 15.60271200291828
STRAND-1                
1 39090U 13009E   24366.98166214  .00001379  00000+0  48346-3 0  9999
2 39090  98.3766 189.8964 0009299  27.9918 332.1767 14.36553485620654
BRITE-AUSTRIA           
1 39091U 13009F   24366.58657747  .00000908  00000+0  32620-3 0  9997
2 39091  98.3817 188.7842 0010945  35.6986 324.4930 14.36131145620590
NEE-01 PEGASO           
1 39151U 13018B   24366.07825622  .00009089  00000+0  97301-3 0  9993
2 39151  98.0538 125.7846 0014985 115.1713 245.1060 14.88854579631235
ESTCUBE 1               
1 39161U 13021C   24366.63341924  .00006402  00000+0  88285-3 0  9995
2 39161  97.8050  67.0985 0007665 316.4533  43.6073 14.78502856626244
POPACS 1                
1 39268U 13055D   24366.05684341  .00067199  93746-7  85584-3 0  9995
2 39268  80.9799 281.3107 0319531 167.5622 193.3743 15.16778884591599
POPACS 2                
1 39269U 13055E   24366.77447807  .00025944  00000+0  54243-3 0  9992
2 39269  80.9974  23.2779 0510976  75.9267 289.8161 14.67293262584466
POPACS 3                
1 39270U 13055F   24366.52915749  .00020460  00000+0  54248-3 0  9995
2 39270  81.0079  81.3764 0603196 238.0422 116.0776 14.42945905561365
ZACUBE-1 (TSHEPISOSAT)  
1 39417U 13066B   24366.85670806  .00012228  00000+0  11367-2 0  9995
2 39417  97.7607 319.2531 0045169 223.8959 135.8669 14.93714349601043
WNISAT-1                
1 39423U 13066H   24366.89994127  .00003299  00000+0  62095-3 0  9994
2 39423  97.6642 185.3311 0168399 107.8149 254.1501 14.56423419589206
TRITON-1                
1 39427U 13066M   25001.06384561  .00008251  00000+0  10821-2 0  9991
2 39427  97.8422 279.0357 0097761 162.5977 197.8624 14.77223105595580
DELFI-N3XT              
1 39428U 13066N   24366.49314031  .00014993  00000+0  16651-2 0  9994
2 39428  97.8385 280.3747 0091025 165.2058 195.1852 14.84280922595294
GOMX-1                  
1 39430U 13066Q   24366.89062031  .00008121  00000+0  12907-2 0  9997
2 39430  97.7023 229.2567 0135178 343.6800  16.0072 14.66335730591819
CUBEBUG-2 (LO-74)       
1 39440U 13066AA  24366.58269841  .00014506  00000+0  15499-2 0  9995
2 39440  97.8344 306.7065 0065123 348.9371  11.0409 14.87312040597631
NEE-02 KRYSAOR          
1 39441U 13066AB  24366.27441709  .00008286  00000+0  98730-3 0  9995
2 39441  97.8430 301.3308 0071750  15.2986 345.0374 14.82715386597117
FUNCUBE-1 (AO-73)       
1 39444U 13066AE  24366.61945783  .00016918  00000+0  14080-2 0  9993
2 39444  97.7440 322.8371 0042431 200.3011 159.6526 14.98031380599604
UWE-3                   
1 39446U 13066AG  24366.82204350  .00013531  00000+0  13607-2 0  9998
2 39446  97.8065 313.1254 0054330 289.3921  70.1429 14.90232085598099
BRITE-CA1 (TORONTO)     
1 40020U 14033L   24366.81738212  .00005121  00000+0  80422-3 0  9997
2 40020  97.9021 137.5091 0081266 179.8689 180.2553 14.70809683563906
